[{"OBJECT_NAME":"STARLINK-35736","OBJECT_ID":"2025-244AA","EPOCH":"2026-03-09T15:45:15.369696","MEAN_MOTION":15.30209054,"ECCENTRICITY":0.00012019,"INCLINATION":53.1586,"RA_OF_ASC_NODE":230.1149,"ARG_OF_PERICENTER":75.0475,"MEAN_ANOMALY":285.0658,"EPHEMERIS_TYPE":0,"CLASSIFICATION_TYPE":"U","NORAD_CAT_ID":66230,"ELEMENT_SET_NO":999,"REV_AT_EPOCH":2165,"BSTAR":0.00071268137,"MEAN_MOTION_DOT":0.00020813,"MEAN_MOTION_DDOT":0},{"OBJECT_NAME":"OBJECT BC","OBJECT_ID":"2025-313BC","EPOCH":"2026-03-09T04:33:08.504064","MEAN_MOTION":15.29126358,"ECCENTRICITY":0.00084789,"INCLINATION":97.3985,"RA_OF_ASC_NODE":144.811,"ARG_OF_PERICENTER":328.9209,"MEAN_ANOMALY":31.1528,"EPHEMERIS_TYPE":0,"CLASSIFICATION_TYPE":"U","NORAD_CAT_ID":67298,"ELEMENT_SET_NO":999,"REV_AT_EPOCH":789,"BSTAR":0.0026410397,"MEAN_MOTION_DOT":0.00075331,"MEAN_MOTION_DDOT":0}]
